STARLINK-30089          
1 56296U 23056L   26068.34242496  .00109192  00000+0  39504-2 0  9994
2 56296  42.9999 171.0972 0001478 246.7575 113.3121 15.27318984160440
STARLINK-36554          
1 67502U 26012K   26067.71268370  .00032833  00000+0  11969-2 0  9992
2 67502  42.9934 319.8184 0000695 339.2059  20.8765 15.27591469  7619
