[{"OBJECT_NAME":"STARLINK-30089","OBJECT_ID":"2023-056L","EPOCH":"2026-03-09T08:13:05.516544","MEAN_MOTION":15.27318984,"ECCENTRICITY":0.00014786,"INCLINATION":42.9999,"RA_OF_ASC_NODE":171.0972,"ARG_OF_PERICENTER":246.7575,"MEAN_ANOMALY":113.3121,"EPHEMERIS_TYPE":0,"CLASSIFICATION_TYPE":"U","NORAD_CAT_ID":56296,"ELEMENT_SET_NO":999,"REV_AT_EPOCH":16044,"BSTAR":0.0039503773,"MEAN_MOTION_DOT":0.00109192,"MEAN_MOTION_DDOT":0},{"OBJECT_NAME":"STARLINK-36554","OBJECT_ID":"2026-012K","EPOCH":"2026-03-08T17:06:15.871680","MEAN_MOTION":15.27591469,"ECCENTRICITY":6.955e-5,"INCLINATION":42.9934,"RA_OF_ASC_NODE":319.8184,"ARG_OF_PERICENTER":339.2059,"MEAN_ANOMALY":20.8765,"EPHEMERIS_TYPE":0,"CLASSIFICATION_TYPE":"U","NORAD_CAT_ID":67502,"ELEMENT_SET_NO":999,"REV_AT_EPOCH":761,"BSTAR":0.0011969118,"MEAN_MOTION_DOT":0.00032833,"MEAN_MOTION_DDOT":0}]
